[{"OBJECT_NAME":"STARLINK-32579","OBJECT_ID":"2024-207L","EPOCH":"2026-02-21T07:18:16.399872","MEAN_MOTION":15.27630741,"ECCENTRICITY":0.0001672,"INCLINATION":43.0037,"RA_OF_ASC_NODE":17.9529,"ARG_OF_PERICENTER":254.5779,"MEAN_ANOMALY":105.4888,"EPHEMERIS_TYPE":0,"CLASSIFICATION_TYPE":"U","NORAD_CAT_ID":61922,"ELEMENT_SET_NO":999,"REV_AT_EPOCH":7217,"BSTAR":0.00098075,"MEAN_MOTION_DOT":0.00026866,"MEAN_MOTION_DDOT":0},{"OBJECT_NAME":"STARLINK-32537","OBJECT_ID":"2024-207M","EPOCH":"2026-02-21T07:44:12.859584","MEAN_MOTION":15.27600322,"ECCENTRICITY":8.276e-5,"INCLINATION":42.9984,"RA_OF_ASC_NODE":18.0901,"ARG_OF_PERICENTER":292.148,"MEAN_ANOMALY":67.9284,"EPHEMERIS_TYPE":0,"CLASSIFICATION_TYPE":"U","NORAD_CAT_ID":61923,"ELEMENT_SET_NO":999,"REV_AT_EPOCH":7217,"BSTAR":0.00062893802,"MEAN_MOTION_DOT":0.00017096,"MEAN_MOTION_DDOT":0},{"OBJECT_NAME":"STARLINK-32564","OBJECT_ID":"2024-207N","EPOCH":"2026-02-21T07:34:57.474336","MEAN_MOTION":15.27587412,"ECCENTRICITY":8.626e-5,"INCLINATION":42.9995,"RA_OF_ASC_NODE":18.0375,"ARG_OF_PERICENTER":253.1283,"MEAN_ANOMALY":106.9474,"EPHEMERIS_TYPE":0,"CLASSIFICATION_TYPE":"U","NORAD_CAT_ID":61924,"ELEMENT_SET_NO":999,"REV_AT_EPOCH":7217,"BSTAR":0.00081160858,"MEAN_MOTION_DOT":0.00022144,"MEAN_MOTION_DDOT":0},{"OBJECT_NAME":"STARLINK-32536","OBJECT_ID":"2024-207P","EPOCH":"2026-02-21T07:49:44.168160","MEAN_MOTION":15.27627145,"ECCENTRICITY":0.00016896,"INCLINATION":43.0025,"RA_OF_ASC_NODE":18.1134,"ARG_OF_PERICENTER":258.6104,"MEAN_ANOMALY":101.4558,"EPHEMERIS_TYPE":0,"CLASSIFICATION_TYPE":"U","NORAD_CAT_ID":61925,"ELEMENT_SET_NO":999,"REV_AT_EPOCH":7217,"BSTAR":0.00086902976,"MEAN_MOTION_DOT":0.00023763,"MEAN_MOTION_DDOT":0},{"OBJECT_NAME":"STARLINK-32624","OBJECT_ID":"2024-207Q","EPOCH":"2026-02-21T07:35:26.261952","MEAN_MOTION":15.27599357,"ECCENTRICITY":0.00016189,"INCLINATION":43.0037,"RA_OF_ASC_NODE":13.7177,"ARG_OF_PERICENTER":248.5236,"MEAN_ANOMALY":111.5443,"EPHEMERIS_TYPE":0,"CLASSIFICATION_TYPE":"U","NORAD_CAT_ID":61926,"ELEMENT_SET_NO":999,"REV_AT_EPOCH":7222,"BSTAR":0.00097294552,"MEAN_MOTION_DOT":0.00026624,"MEAN_MOTION_DDOT":0},{"OBJECT_NAME":"STARLINK-32622","OBJECT_ID":"2024-207R","EPOCH":"2026-02-21T06:12:23.323392","MEAN_MOTION":15.27604385,"ECCENTRICITY":0.0001809,"INCLINATION":43.0048,"RA_OF_ASC_NODE":14.1465,"ARG_OF_PERICENTER":264.3373,"MEAN_ANOMALY":95.7272,"EPHEMERIS_TYPE":0,"CLASSIFICATION_TYPE":"U","NORAD_CAT_ID":61927,"ELEMENT_SET_NO":999,"REV_AT_EPOCH":7221,"BSTAR":0.0013835,"MEAN_MOTION_DOT":0.00038035,"MEAN_MOTION_DDOT":0},{"OBJECT_NAME":"STARLINK-32620","OBJECT_ID":"2024-207S","EPOCH":"2026-02-21T05:20:47.247648","MEAN_MOTION":15.27593855,"ECCENTRICITY":0.0001709,"INCLINATION":43.0037,"RA_OF_ASC_NODE":14.7372,"ARG_OF_PERICENTER":275.1125,"MEAN_ANOMALY":84.9532,"EPHEMERIS_TYPE":0,"CLASSIFICATION_TYPE":"U","NORAD_CAT_ID":61928,"ELEMENT_SET_NO":999,"REV_AT_EPOCH":7220,"BSTAR":0.0011043,"MEAN_MOTION_DOT":0.00030264,"MEAN_MOTION_DDOT":0},{"OBJECT_NAME":"STARLINK-32609","OBJECT_ID":"2024-207T","EPOCH":"2026-02-21T05:09:41.486400","MEAN_MOTION":15.27589935,"ECCENTRICITY":0.0001592,"INCLINATION":43.0058,"RA_OF_ASC_NODE":14.6828,"ARG_OF_PERICENTER":259.8922,"MEAN_ANOMALY":100.175,"EPHEMERIS_TYPE":0,"CLASSIFICATION_TYPE":"U","NORAD_CAT_ID":61929,"ELEMENT_SET_NO":999,"REV_AT_EPOCH":7220,"BSTAR":0.00096737,"MEAN_MOTION_DOT":0.00026462,"MEAN_MOTION_DDOT":0},{"OBJECT_NAME":"STARLINK-32567","OBJECT_ID":"2024-207U","EPOCH":"2026-02-21T07:04:53.274720","MEAN_MOTION":15.27594425,"ECCENTRICITY":0.0001789,"INCLINATION":42.9996,"RA_OF_ASC_NODE":10.947,"ARG_OF_PERICENTER":259.8887,"MEAN_ANOMALY":100.1763,"EPHEMERIS_TYPE":0,"CLASSIFICATION_TYPE":"U","NORAD_CAT_ID":61930,"ELEMENT_SET_NO":999,"REV_AT_EPOCH":7284,"BSTAR":0.0006905,"MEAN_MOTION_DOT":0.00018796,"MEAN_MOTION_DDOT":0},{"OBJECT_NAME":"STARLINK-32420","OBJECT_ID":"2024-207V","EPOCH":"2026-02-21T06:23:30.168960","MEAN_MOTION":15.27645975,"ECCENTRICITY":0.0002484,"INCLINATION":43.0067,"RA_OF_ASC_NODE":14.2053,"ARG_OF_PERICENTER":268.7784,"MEAN_ANOMALY":91.2783,"EPHEMERIS_TYPE":0,"CLASSIFICATION_TYPE":"U","NORAD_CAT_ID":61931,"ELEMENT_SET_NO":999,"REV_AT_EPOCH":7221,"BSTAR":0.0024484,"MEAN_MOTION_DOT":0.00067872,"MEAN_MOTION_DDOT":0},{"OBJECT_NAME":"STARLINK-32354","OBJECT_ID":"2024-207W","EPOCH":"2026-02-21T07:29:23.763840","MEAN_MOTION":15.275659,"ECCENTRICITY":0.0001521,"INCLINATION":43.0006,"RA_OF_ASC_NODE":18.0086,"ARG_OF_PERICENTER":269.8861,"MEAN_ANOMALY":90.1816,"EPHEMERIS_TYPE":0,"CLASSIFICATION_TYPE":"U","NORAD_CAT_ID":61932,"ELEMENT_SET_NO":999,"REV_AT_EPOCH":7266,"BSTAR":0.00072642,"MEAN_MOTION_DOT":0.00019772,"MEAN_MOTION_DDOT":0},{"OBJECT_NAME":"STARLINK-32361","OBJECT_ID":"2024-207X","EPOCH":"2026-02-21T07:31:56.532864","MEAN_MOTION":15.27598969,"ECCENTRICITY":0.0002193,"INCLINATION":43.0045,"RA_OF_ASC_NODE":14.5453,"ARG_OF_PERICENTER":254.4473,"MEAN_ANOMALY":105.6137,"EPHEMERIS_TYPE":0,"CLASSIFICATION_TYPE":"U","NORAD_CAT_ID":61933,"ELEMENT_SET_NO":999,"REV_AT_EPOCH":7221,"BSTAR":0.00092374,"MEAN_MOTION_DOT":0.0002526,"MEAN_MOTION_DDOT":0},{"OBJECT_NAME":"STARLINK-32500","OBJECT_ID":"2024-207Z","EPOCH":"2026-02-21T05:38:35.263104","MEAN_MOTION":15.27605414,"ECCENTRICITY":0.0002388,"INCLINATION":43.0046,"RA_OF_ASC_NODE":18.2861,"ARG_OF_PERICENTER":252.5764,"MEAN_ANOMALY":107.4826,"EPHEMERIS_TYPE":0,"CLASSIFICATION_TYPE":"U","NORAD_CAT_ID":61935,"ELEMENT_SET_NO":999,"REV_AT_EPOCH":7216,"BSTAR":0.0012278,"MEAN_MOTION_DOT":0.00033706,"MEAN_MOTION_DDOT":0},{"OBJECT_NAME":"STARLINK-11407 [DTC]","OBJECT_ID":"2024-209A","EPOCH":"2026-02-21T14:21:41.308128","MEAN_MOTION":15.69795803,"ECCENTRICITY":0.00016377,"INCLINATION":53.1569,"RA_OF_ASC_NODE":90.3621,"ARG_OF_PERICENTER":134.1377,"MEAN_ANOMALY":225.9776,"EPHEMERIS_TYPE":0,"CLASSIFICATION_TYPE":"U","NORAD_CAT_ID":61939,"ELEMENT_SET_NO":999,"REV_AT_EPOCH":7421,"BSTAR":0.0013680375,"MEAN_MOTION_DOT":0.00169171,"MEAN_MOTION_DDOT":0},{"OBJECT_NAME":"STARLINK-11337 [DTC]","OBJECT_ID":"2024-209B","EPOCH":"2026-02-21T14:14:38.165856","MEAN_MOTION":15.69743599,"ECCENTRICITY":0.00011778,"INCLINATION":53.1568,"RA_OF_ASC_NODE":90.3304,"ARG_OF_PERICENTER":90.5823,"MEAN_ANOMALY":269.533,"EPHEMERIS_TYPE":0,"CLASSIFICATION_TYPE":"U","NORAD_CAT_ID":61940,"ELEMENT_SET_NO":999,"REV_AT_EPOCH":7419,"BSTAR":0.00080597435,"MEAN_MOTION_DOT":0.00098356,"MEAN_MOTION_DDOT":0},{"OBJECT_NAME":"STARLINK-11353 [DTC]","OBJECT_ID":"2024-209C","EPOCH":"2026-02-21T14:07:33.776832","MEAN_MOTION":15.69785827,"ECCENTRICITY":0.00014503,"INCLINATION":53.1565,"RA_OF_ASC_NODE":90.2969,"ARG_OF_PERICENTER":66.1223,"MEAN_ANOMALY":293.9947,"EPHEMERIS_TYPE":0,"CLASSIFICATION_TYPE":"U","NORAD_CAT_ID":61941,"ELEMENT_SET_NO":999,"REV_AT_EPOCH":7415,"BSTAR":0.0011566184,"MEAN_MOTION_DOT":0.00142412,"MEAN_MOTION_DDOT":0},{"OBJECT_NAME":"STARLINK-11320 [DTC]","OBJECT_ID":"2024-209D","EPOCH":"2026-02-21T12:28:57.882432","MEAN_MOTION":15.69795626,"ECCENTRICITY":0.00014361,"INCLINATION":53.1566,"RA_OF_ASC_NODE":91.3144,"ARG_OF_PERICENTER":69.8927,"MEAN_ANOMALY":290.2245,"EPHEMERIS_TYPE":0,"CLASSIFICATION_TYPE":"U","NORAD_CAT_ID":61942,"ELEMENT_SET_NO":999,"REV_AT_EPOCH":7413,"BSTAR":0.0017285488,"MEAN_MOTION_DOT":0.00215103,"MEAN_MOTION_DDOT":0},{"OBJECT_NAME":"STARLINK-11425 [DTC]","OBJECT_ID":"2024-209E","EPOCH":"2026-02-21T09:18:32.384448","MEAN_MOTION":15.69742445,"ECCENTRICITY":0.00016261,"INCLINATION":53.1564,"RA_OF_ASC_NODE":91.9087,"ARG_OF_PERICENTER":37.5984,"MEAN_ANOMALY":322.5148,"EPHEMERIS_TYPE":0,"CLASSIFICATION_TYPE":"U","NORAD_CAT_ID":61943,"ELEMENT_SET_NO":999,"REV_AT_EPOCH":7411,"BSTAR":0.0015616285,"MEAN_MOTION_DOT":0.00193334,"MEAN_MOTION_DDOT":0},{"OBJECT_NAME":"STARLINK-11422 [DTC]","OBJECT_ID":"2024-209F","EPOCH":"2026-02-21T12:14:50.242272","MEAN_MOTION":15.69788875,"ECCENTRICITY":0.00013642,"INCLINATION":53.1564,"RA_OF_ASC_NODE":91.2491,"ARG_OF_PERICENTER":68.1615,"MEAN_ANOMALY":291.9548,"EPHEMERIS_TYPE":0,"CLASSIFICATION_TYPE":"U","NORAD_CAT_ID":61944,"ELEMENT_SET_NO":999,"REV_AT_EPOCH":7413,"BSTAR":0.0012409074,"MEAN_MOTION_DOT":0.0015305,"MEAN_MOTION_DDOT":0},{"OBJECT_NAME":"STARLINK-11421 [DTC]","OBJECT_ID":"2024-209G","EPOCH":"2026-02-21T13:39:27.248832","MEAN_MOTION":15.69793942,"ECCENTRICITY":0.00012192,"INCLINATION":53.1568,"RA_OF_ASC_NODE":90.903,"ARG_OF_PERICENTER":63.1576,"MEAN_ANOMALY":296.9566,"EPHEMERIS_TYPE":0,"CLASSIFICATION_TYPE":"U","NORAD_CAT_ID":61945,"ELEMENT_SET_NO":999,"REV_AT_EPOCH":7414,"BSTAR":0.0013375919,"MEAN_MOTION_DOT":0.00165301,"MEAN_MOTION_DDOT":0},{"OBJECT_NAME":"STARLINK-11410 [DTC]","OBJECT_ID":"2024-209H","EPOCH":"2026-02-21T07:25:39.787392","MEAN_MOTION":15.69737106,"ECCENTRICITY":0.00011478,"INCLINATION":53.1569,"RA_OF_ASC_NODE":92.1216,"ARG_OF_PERICENTER":74.1167,"MEAN_ANOMALY":285.9977,"EPHEMERIS_TYPE":0,"CLASSIFICATION_TYPE":"U","NORAD_CAT_ID":61946,"ELEMENT_SET_NO":999,"REV_AT_EPOCH":7414,"BSTAR":0.0014623108,"MEAN_MOTION_DOT":0.00180681,"MEAN_MOTION_DDOT":0},{"OBJECT_NAME":"STARLINK-11390 [DTC]","OBJECT_ID":"2024-209J","EPOCH":"2026-02-21T11:53:39.077952","MEAN_MOTION":15.6978448,"ECCENTRICITY":0.00023686,"INCLINATION":53.157,"RA_OF_ASC_NODE":91.1512,"ARG_OF_PERICENTER":29.9012,"MEAN_ANOMALY":330.2141,"EPHEMERIS_TYPE":0,"CLASSIFICATION_TYPE":"U","NORAD_CAT_ID":61947,"ELEMENT_SET_NO":999,"REV_AT_EPOCH":7417,"BSTAR":0.0021721351,"MEAN_MOTION_DOT":0.00272222,"MEAN_MOTION_DDOT":0},{"OBJECT_NAME":"STARLINK-11414 [DTC]","OBJECT_ID":"2024-209K","EPOCH":"2026-02-21T14:28:44.854752","MEAN_MOTION":15.69824594,"ECCENTRICITY":0.00016964,"INCLINATION":53.156,"RA_OF_ASC_NODE":90.3916,"ARG_OF_PERICENTER":133.6837,"MEAN_ANOMALY":226.4322,"EPHEMERIS_TYPE":0,"CLASSIFICATION_TYPE":"U","NORAD_CAT_ID":61948,"ELEMENT_SET_NO":999,"REV_AT_EPOCH":7419,"BSTAR":0.0017728869,"MEAN_MOTION_DOT":0.00221063,"MEAN_MOTION_DDOT":0}]
